NORAD_CAT_ID,OBJECT_NAME,OBJECT_TYPE,EPOCH,MEAN_MOTION,ECCENTRICITY,INCLINATION,RA_OF_ASC_NODE,ARG_OF_PERICENTER,MEAN_ANOMALY,BSTAR,MEAN_MOTION_DOT,MEAN_MOTION_DDOT,TLE_LINE0,TLE_LINE1,TLE_LINE2,SEMIMAJOR_AXIS,PERIOD,APOGEE,PERIGEE,DECAYED
52482.0,STARLINK-3813,PAYLOAD,2023-01-31 04:57:04,15.08833098,0.0001351,53.219,97.5219,85.184,274.9306,0.00012797,1.749e-05,0.0,0 STARLINK-3813,1 52482U 22049AH  23031.20630282  .00001749  00000-0  12797-3 0  9990,2 52482  53.2190  97.5219 0001351  85.1840 274.9306 15.08833098 41430,6917.901,95.438,540.701,538.832,0.0
52482.0,STARLINK-3813,PAYLOAD,2023-01-31 12:54:00,15.08837651,0.0001476,53.2179,96.0344,71.9102,288.205,0.00014696,2.052e-05,0.0,0 STARLINK-3813,1 52482U 22049AH  23031.53750090  .00002052  00000-0  14696-3 0  9994,2 52482  53.2179  96.0344 0001476  71.9102 288.2050 15.08837651 41323,6917.888,95.438,540.774,538.731,0.0
52482.0,STARLINK-3813,PAYLOAD,2023-01-31 20:50:55,15.08835979,0.0001251,53.218,94.5475,73.6608,286.4521,9.7982e-05,1.272e-05,0.0,0 STARLINK-3813,1 52482U 22049AH  23031.86870335  .00001272  00000-0  97982-4 0  9998,2 52482  53.2180  94.5475 0001251  73.6608 286.4521 15.08835979 41373,6917.893,95.438,540.623,538.892,0.0
52482.0,STARLINK-3813,PAYLOAD,2023-02-01 09:34:00,15.08841966,0.0001356,53.2181,92.1683,75.777,284.3373,2.5545e-05,1.19e-06,0.0,0 STARLINK-3813,1 52482U 22049AH  23032.39862154  .00000119  00000-0  25545-4 0  9992,2 52482  53.2181  92.1683 0001356  75.7770 284.3373 15.08841966 41610,6917.874,95.437,540.677,538.801,0.0
52482.0,STARLINK-3813,PAYLOAD,2023-02-02 03:03:15,15.0883197,0.0001263,53.2172,88.8989,82.3725,277.7411,3.2047e-05,2.22e-06,0.0,0 STARLINK-3813,1 52482U 22049AH  23033.12726783  .00000222  00000-0  32047-4 0  9991,2 52482  53.2172  88.8989 0001263  82.3725 277.7411 15.08831970 41727,6917.905,95.438,540.644,538.896,0.0
52482.0,STARLINK-3813,PAYLOAD,2023-02-02 11:00:11,15.08838614,0.000126,53.2192,87.4112,88.3515,271.7622,-1.924e-05,-5.94e-06,0.0,0 STARLINK-3813,1 52482U 22049AH  23033.45846623 -.00000594  00000-0 -19240-4 0  9997,2 52482  53.2192  87.4112 0001260  88.3515 271.7622 15.08838614 41610,6917.885,95.438,540.621,538.878,0.0
52482.0,STARLINK-3813,PAYLOAD,2023-02-03 04:29:25,15.08840093,0.0001374,53.2205,84.1421,94.1746,265.9403,6.0255e-05,6.71e-06,0.0,0 STARLINK-3813,1 52482U 22049AH  23034.18710563  .00000671  00000-0  60255-4 0  9997,2 52482  53.2205  84.1421 0001374  94.1746 265.9403 15.08840093 41884,6917.88,95.438,540.696,538.795,0.0
52482.0,STARLINK-3813,PAYLOAD,2023-02-03 12:26:20,15.08858485,0.0001671,53.2189,82.654,106.6279,253.4897,-8.7595e-05,-1.683e-05,0.0,0 STARLINK-3813,1 52482U 22049AH  23034.51829651 -.00001683  00000-0 -87595-4 0  9995,2 52482  53.2189  82.6540 0001671 106.6279 253.4897 15.08858485 41939,6917.824,95.436,540.845,538.533,0.0
52482.0,STARLINK-3813,PAYLOAD,2023-02-04 07:30:59,15.08834329,0.000122,53.2174,79.0852,93.1576,266.9556,0.00014262,1.982e-05,0.0,0 STARLINK-3813,1 52482U 22049AH  23035.31318888  .00001982  00000-0  14262-3 0  9999,2 52482  53.2174  79.0852 0001220  93.1576 266.9556 15.08834329 42055,6917.898,95.438,540.607,538.919,0.0
52482.0,STARLINK-3813,PAYLOAD,2023-02-04 20:14:04,15.08839534,0.0001521,53.2184,76.7069,88.591,271.5257,8.3596e-05,1.043e-05,0.0,0 STARLINK-3813,1 52482U 22049AH  23035.84310856  .00001043  00000-0  83596-4 0  9999,2 52482  53.2184  76.7069 0001521  88.5910 271.5257 15.08839534 41977,6917.882,95.438,540.799,538.695,0.0
52482.0,STARLINK-3813,PAYLOAD,2023-02-05 12:07:55,15.08844498,0.000121,53.2176,73.7316,104.3898,255.7229,5.5892e-05,6.02e-06,0.0,0 STARLINK-3813,1 52482U 22049AH  23036.50550463  .00000602  00000-0  55892-4 0  9991,2 52482  53.2176  73.7316 0001210 104.3898 255.7229 15.08844498 42235,6917.867,95.437,540.569,538.895,0.0
52482.0,STARLINK-3813,PAYLOAD,2023-02-06 11:58:42,15.08858654,0.0001342,53.2176,69.2705,108.1577,251.9561,-8.5929e-05,-1.656e-05,0.0,0 STARLINK-3813,1 52482U 22049AH  23037.49909781 -.00001656  00000-0 -85929-4 0  9997,2 52482  53.2176  69.2705 0001342 108.1577 251.9561 15.08858654 42224,6917.823,95.436,540.617,538.76,0.0
52482.0,STARLINK-3813,PAYLOAD,2023-02-07 07:03:20,15.0884244,0.0001227,53.2187,65.7017,109.8958,250.2166,0.00014574,2.032e-05,0.0,0 STARLINK-3813,1 52482U 22049AH  23038.29398320  .00002032  00000-0  14574-3 0  9991,2 52482  53.2187  65.7017 0001227 109.8958 250.2166 15.08842440 42506,6917.873,95.437,540.587,538.889,0.0
52482.0,STARLINK-3813,PAYLOAD,2023-02-07 11:49:29,15.08851845,0.0001334,53.2184,64.8109,103.6498,256.4643,0.00013627,1.882e-05,0.0,0 STARLINK-3813,1 52482U 22049AH  23038.49269728  .00001882  00000-0  13627-3 0  9992,2 52482  53.2184  64.8109 0001334 103.6498 256.4643 15.08851845 42535,6917.844,95.437,540.632,538.786,0.0
52482.0,STARLINK-3813,PAYLOAD,2023-02-08 06:54:07,15.08843707,0.0001392,53.2174,61.242,104.055,256.0597,3.4355e-05,2.59e-06,0.0,0 STARLINK-3813,1 52482U 22049AH  23039.28758323  .00000259  00000-0  34355-4 0  9993,2 52482  53.2174  61.2420 0001392 104.0550 256.0597 15.08843707 42654,6917.869,95.437,540.697,538.771,0.0
52482.0,STARLINK-3813,PAYLOAD,2023-02-08 11:40:16,15.08851265,0.0001217,53.2181,60.35,110.214,249.8983,0.00014308,1.991e-05,0.0,0 STARLINK-3813,1 52482U 22049AH  23039.48629859  .00001991  00000-0  14308-3 0  9995,2 52482  53.2181  60.3500 0001217 110.2140 249.8983 15.08851265 42524,6917.846,95.437,540.553,538.869,0.0
52482.0,STARLINK-3813,PAYLOAD,2023-02-09 06:44:54,15.08836837,0.0001471,53.2185,56.7816,102.0495,258.0662,-2.2667e-05,-6.49e-06,0.0,0 STARLINK-3813,1 52482U 22049AH  23040.28118922 -.00000649  00000-0 -22667-4 0  9998,2 52482  53.2185  56.7816 0001471 102.0495 258.0662 15.08836837 42806,6917.89,95.438,540.773,538.737,0.0
52482.0,STARLINK-3813,PAYLOAD,2023-02-09 09:55:40,15.08840059,0.0001546,53.2183,56.1871,98.1986,261.9182,3.3539e-05,2.46e-06,0.0,0 STARLINK-3813,1 52482U 22049AH  23040.41366891  .00000246  00000-0  33539-4 0  9994,2 52482  53.2183  56.1871 0001546  98.1986 261.9182 15.08840059 42667,6917.88,95.438,540.815,538.676,0.0
52482.0,STARLINK-3813,PAYLOAD,2023-02-09 17:52:37,15.08831101,0.0001657,53.2184,54.7011,92.1947,267.9235,-3.8825e-05,-9.06e-06,0.0,0 STARLINK-3813,1 52482U 22049AH  23040.74487376 -.00000906  00000-0 -38825-4 0  9990,2 52482  53.2184  54.7011 0001657  92.1947 267.9235 15.08831101 42711,6917.908,95.438,540.919,538.626,0.0
52482.0,STARLINK-3813,PAYLOAD,2023-02-10 00:14:09,15.08830486,0.0001585,53.2183,53.5124,95.6959,264.4214,5.6859e-05,6.17e-06,0.0,0 STARLINK-3813,1 52482U 22049AH  23041.00983684  .00000617  00000-0  56859-4 0  9997,2 52482  53.2183  53.5124 0001585  95.6959 264.4214 15.08830486 42919,6917.909,95.438,540.871,538.678,0.0
52482.0,STARLINK-3813,PAYLOAD,2023-02-10 08:11:04,15.08848882,0.0001348,53.218,52.0249,104.3552,255.759,0.00023953,3.527e-05,0.0,0 STARLINK-3813,1 52482U 22049AH  23041.34102871  .00003527  00000-0  23953-3 0  9996,2 52482  53.2180  52.0249 0001348 104.3552 255.7590 15.08848882 42966,6917.853,95.437,540.651,538.786,0.0
52482.0,STARLINK-3813,PAYLOAD,2023-02-11 06:26:29,15.08844028,0.0001335,53.2191,47.8607,106.1863,253.9276,0.00019556,2.826e-05,0.0,0 STARLINK-3813,1 52482U 22049AH  23042.26839265  .00002826  00000-0  19556-3 0  9997,2 52482  53.2191  47.8607 0001335 106.1863 253.9276 15.08844028 43105,6917.868,95.437,540.657,538.81,0.0
52482.0,STARLINK-3813,PAYLOAD,2023-02-11 17:34:11,15.08840773,0.0001722,53.2194,45.7791,99.6884,260.4303,0.00015527,2.184e-05,0.0,0 STARLINK-3813,1 52482U 22049AH  23042.73207626  .00002184  00000-0  15527-3 0  9990,2 52482  53.2194  45.7791 0001722  99.6884 260.4303 15.08840773 43015,6917.878,95.438,540.934,538.552,0.0
52482.0,STARLINK-3813,PAYLOAD,2023-02-11 23:55:44,15.08834792,0.000138,53.2183,44.5911,101.7206,258.3941,0.00025343,3.747e-05,0.0,0 STARLINK-3813,1 52482U 22049AH  23042.99703980  .00003747  00000-0  25343-3 0  9995,2 52482  53.2183  44.5911 0001380 101.7206 258.3941 15.08834792 43217,6917.896,95.438,540.716,538.807,0.0
52482.0,STARLINK-3813,PAYLOAD,2023-02-12 09:28:02,15.08848928,0.0001489,53.2175,42.8071,101.7515,258.3644,0.0001461,2.039e-05,0.0,0 STARLINK-3813,1 52482U 22049AH  23043.39447104  .00002039  00000-0  14610-3 0  9991,2 52482  53.2175  42.8071 0001489 101.7515 258.3644 15.08848928 43271,6917.853,95.437,540.748,538.688,0.0
52482.0,STARLINK-3813,PAYLOAD,2023-02-12 17:24:58,15.08833221,0.0001968,53.2189,41.3196,94.965,265.1566,-4.8059e-06,-3.65e-06,0.0,0 STARLINK-3813,1 52482U 22049AH  23043.72568230 -.00000365  00000-0 -48059-5 0  9990,2 52482  53.2189  41.3196 0001968  94.9650 265.1566 15.08833221 43328,6917.901,95.438,541.128,538.405,0.0
52482.0,STARLINK-3813,PAYLOAD,2023-02-13 09:18:49,15.08851153,0.0001616,53.2185,38.3446,109.8426,250.274,0.00014543,2.028e-05,0.0,0 STARLINK-3813,1 52482U 22049AH  23044.38807346  .00002028  00000-0  14543-3 0  9992,2 52482  53.2185  38.3446 0001616 109.8426 250.2740 15.08851153 43429,6917.846,95.437,540.829,538.593,0.0
52482.0,STARLINK-3813,PAYLOAD,2023-02-14 02:48:04,15.08848979,0.0001613,53.2185,35.0748,102.3577,257.7596,0.0005325,8.199e-05,0.0,0 STARLINK-3813,1 52482U 22049AH  23045.11672086  .00008199  00000-0  53250-3 0  9998,2 52482  53.2185  35.0748 0001613 102.3577 257.7596 15.08848979 43535,6917.853,95.437,540.834,538.602,0.0
52482.0,STARLINK-3813,PAYLOAD,2023-02-14 09:09:36,15.0887299,0.0001397,53.2188,33.8867,88.539,271.5763,0.0015314,0.0002419,0.0,0 STARLINK-3813,1 52482U 22049AH  23045.38167663  .00024190  00000-0  15314-2 0  9994,2 52482  53.2188  33.8867 0001397  88.5390 271.5763 15.08872990 43577,6917.78,95.435,540.611,538.678,0.0
52482.0,STARLINK-3813,PAYLOAD,2023-02-14 20:17:19,15.08844514,0.0001705,53.2187,31.8036,123.6097,236.5058,0.00059065,9.126e-05,0.0,0 STARLINK-3813,1 52482U 22049AH  23045.84535970  .00009126  00000-0  59065-3 0  9999,2 52482  53.2187  31.8036 0001705 123.6097 236.5058 15.08844514 43647,6917.867,95.437,540.911,538.552,0.0
